[{"OBJECT_NAME":"STARLINK-2147","OBJECT_ID":"2021-017Q","EPOCH":"2026-03-09T15:25:32.870784","MEAN_MOTION":15.06407208,"ECCENTRICITY":0.0001356,"INCLINATION":53.0562,"RA_OF_ASC_NODE":201.8296,"ARG_OF_PERICENTER":88.3809,"MEAN_ANOMALY":271.7335,"EPHEMERIS_TYPE":0,"CLASSIFICATION_TYPE":"U","NORAD_CAT_ID":47736,"ELEMENT_SET_NO":999,"REV_AT_EPOCH":27791,"BSTAR":0.00025787,"MEAN_MOTION_DOT":3.562e-5,"MEAN_MOTION_DDOT":0},{"OBJECT_NAME":"GRBBETA","OBJECT_ID":"2024-128C","EPOCH":"2026-03-09T16:58:19.607232","MEAN_MOTION":15.05794613,"ECCENTRICITY":0.0051339,"INCLINATION":61.9904,"RA_OF_ASC_NODE":205.0764,"ARG_OF_PERICENTER":114.1677,"MEAN_ANOMALY":246.4795,"EPHEMERIS_TYPE":0,"CLASSIFICATION_TYPE":"U","NORAD_CAT_ID":60237,"ELEMENT_SET_NO":999,"REV_AT_EPOCH":9128,"BSTAR":0.00046403869,"MEAN_MOTION_DOT":6.748e-5,"MEAN_MOTION_DDOT":0}]
